{"type": "FeatureCollection", "features": [ {"type": "Feature", "properties": {"norad_id": 31678, "name": "FENGYUN 1C DEB", "group": "fengyun-1c-debris", "lat": 55.655805126019715, "lon": 73.2738207348194, "alt_km": 525.7367364461534, "timestamp": "2025-12-03T15:48:03.353978+00:00", "meta": {"OBJECT_NAME": "FENGYUN 1C DEB", "OBJECT_ID": "1999-025CCL", "EPOCH": "2025-11-26T13:19:25.960512", "MEAN_MOTION": 14.5293095, "ECCENTRICITY": 0.02605683, "INCLINATION": 98.7996, "RA_OF_ASC_NODE": 78.917, "ARG_OF_PERICENTER": 76.9742, "MEAN_ANOMALY": 286.0402, "EPHEMERIS_TYPE": 0, "CLASSIFICATION_TYPE": "U", "NORAD_CAT_ID": 31678, "ELEMENT_SET_NO": 999, "REV_AT_EPOCH": 96604, "BSTAR": 0.0012745717, "MEAN_MOTION_DOT": 8.183e-05, "MEAN_MOTION_DDOT": 0}, "tle": {"line1": "1 31678U 99025CCL 25330.55516158  .00008183  00000+0  12746-2 0  9990", "line2": "2 31678  98.7996  78.9170 0260568  76.9742 286.0402 14.52930950966044"}}, "geometry": {"type": "Point", "coordinates": [73.2738207348194, 55.655805126019715]}}, {"type": "Feature", "properties": {"norad_id": 31680, "name": "FENGYUN 1C DEB", "group": "fengyun-1c-debris", "lat": -31.873457284319905, "lon": -103.82529114550023, "alt_km": 517.2031006099378, "timestamp": "2025-12-03T15:48:03.353987+00:00", "meta": {"OBJECT_NAME": "FENGYUN 1C DEB", "OBJECT_ID": "1999-025CCN", "EPOCH": "2025-12-01T12:24:56.280384", "MEAN_MOTION": 15.23129089, "ECCENTRICITY": 0.00767186, "INCLINATION": 99.8371, "RA_OF_ASC_NODE": 79.5688, "ARG_OF_PERICENTER": 326.4475, "MEAN_ANOMALY": 33.1907, "EPHEMERIS_TYPE": 0, "CLASSIFICATION_TYPE": "U", "NORAD_CAT_ID": 31680, "ELEMENT_SET_NO": 999, "REV_AT_EPOCH": 1, "BSTAR": 0.0012787878, "MEAN_MOTION_DOT": 0.00032782, "MEAN_MOTION_DDOT": 0}, "tle": {"line1": "1 31680U 99025CCN 25335.51731806  .00032782  00000+0  12788-2 0  9991", "line2": "2 31680  99.8371  79.5688 0076718 326.4475  33.1907 15.23129089    14"}}, "geometry": {"type": "Point", "coordinates": [-103.82529114550023, -31.873457284319905]}}, {"type": "Feature", "properties": {"norad_id": 31685, "name": "FENGYUN 1C DEB", "group": "fengyun-1c-debris", "lat": 30.851416552961496, "lon": -172.5801007761844, "alt_km": 861.606806888256, "timestamp": "2025-12-03T15:48:03.353996+00:00", "meta": {"OBJECT_NAME": "FENGYUN 1C DEB", "OBJECT_ID": "1999-025CCT", "EPOCH": "2025-12-01T20:30:32.424480", "MEAN_MOTION": 14.09652081, "ECCENTRICITY": 0.00155771, "INCLINATION": 98.732, "RA_OF_ASC_NODE": 0.403, "ARG_OF_PERICENTER": 258.1268, "MEAN_ANOMALY": 101.8156, "EPHEMERIS_TYPE": 0, "CLASSIFICATION_TYPE": "U", "NORAD_CAT_ID": 31685, "ELEMENT_SET_NO": 999, "REV_AT_EPOCH": 94936, "BSTAR": 0.00016751676, "MEAN_MOTION_DOT": 2.51e-06, "MEAN_MOTION_DDOT": 0}, "tle": {"line1": "1 31685U 99025CCT 25335.85454195  .00000251  00000+0  16752-3 0  9998", "line2": "2 31685  98.7320   0.4030 0015577 258.1268 101.8156 14.09652081949367"}}, "geometry": {"type": "Point", "coordinates": [-172.5801007761844, 30.851416552961496]}}, {"type": "Feature", "properties": {"norad_id": 31686, "name": "FENGYUN 1C DEB", "group": "fengyun-1c-debris", "lat": 38.369736674237345, "lon": 42.69641553915889, "alt_km": 610.0571581081595, "timestamp": "2025-12-03T15:48:03.354005+00:00", "meta": {"OBJECT_NAME": "FENGYUN 1C DEB", "OBJECT_ID": "1999-025CCU", "EPOCH": "2025-12-02T03:43:38.757216", "MEAN_MOTION": 14.71793489, "ECCENTRICITY": 0.02845072, "INCLINATION": 98.1533, "RA_OF_ASC_NODE": 47.7056, "ARG_OF_PERICENTER": 123.0943, "MEAN_ANOMALY": 239.7923, "EPHEMERIS_TYPE": 0, "CLASSIFICATION_TYPE": "U", "NORAD_CAT_ID": 31686, "ELEMENT_SET_NO": 999, "REV_AT_EPOCH": 97663, "BSTAR": 0.0010846923, "MEAN_MOTION_DOT": 0.00012851, "MEAN_MOTION_DDOT": 0}, "tle": {"line1": "1 31686U 99025CCU 25336.15530969  .00012851  00000+0  10847-2 0  9994", "line2": "2 31686  98.1533  47.7056 0284507 123.0943 239.7923 14.71793489976631"}}, "geometry": {"type": "Point", "coordinates": [42.69641553915889, 38.369736674237345]}}, {"type": "Feature", "properties": {"norad_id": 31688, "name": "FENGYUN 1C DEB", "group": "fengyun-1c-debris", "lat": 25.68009250687331, "lon": -143.76468829474024, "alt_km": 831.5423446123941, "timestamp": "2025-12-03T15:48:03.354014+00:00", "meta": {"OBJECT_NAME": "FENGYUN 1C DEB", "OBJECT_ID": "1999-025CCW", "EPOCH": "2025-12-03T03:04:57.976320", "MEAN_MOTION": 14.02313631, "ECCENTRICITY": 0.00750878, "INCLINATION": 98.9672, "RA_OF_ASC_NODE": 31.3597, "ARG_OF_PERICENTER": 167.6256, "MEAN_ANOMALY": 192.6776, "EPHEMERIS_TYPE": 0, "CLASSIFICATION_TYPE": "U", "NORAD_CAT_ID": 31688, "ELEMENT_SET_NO": 999, "REV_AT_EPOCH": 95143, "BSTAR": 2.681122e-06, "MEAN_MOTION_DOT": -3.9e-07, "MEAN_MOTION_DDOT": 0}, "tle": {"line1": "1 31688U 99025CCW 25337.12844880 -.00000039  00000+0  26811-5 0  9991", "line2": "2 31688  98.9672  31.3597 0075087 167.6256 192.6776 14.02313631951431"}}, "geometry": {"type": "Point", "coordinates": [-143.76468829474024, 25.68009250687331]}}, {"type": "Feature", "properties": {"norad_id": 31691, "name": "FENGYUN 1C DEB", "group": "fengyun-1c-debris", "lat": -72.19728946735704, "lon": 93.1092828096989, "alt_km": 771.7857197758503, "timestamp": "2025-12-03T15:48:03.354023+00:00", "meta": {"OBJECT_NAME": "FENGYUN 1C DEB", "OBJECT_ID": "1999-025CCZ", "EPOCH": "2025-12-02T23:18:27.511200", "MEAN_MOTION": 14.25966665, "ECCENTRICITY": 0.00603814, "INCLINATION": 98.8825, "RA_OF_ASC_NODE": 63.2695, "ARG_OF_PERICENTER": 267.1233, "MEAN_ANOMALY": 92.3035, "EPHEMERIS_TYPE": 0, "CLASSIFICATION_TYPE": "U", "NORAD_CAT_ID": 31691, "ELEMENT_SET_NO": 999, "REV_AT_EPOCH": 63972, "BSTAR": 0.0030104933, "MEAN_MOTION_DOT": 7.279e-05, "MEAN_MOTION_DDOT": 0}, "tle": {"line1": "1 31691U 99025CCZ 25336.97115175  .00007279  00000+0  30105-2 0  9995", "line2": "2 31691  98.8825  63.2695 0060381 267.1233  92.3035 14.25966665639724"}}, "geometry": {"type": "Point", "coordinates": [93.1092828096989, -72.19728946735704]}}, {"type": "Feature", "properties": {"norad_id": 31692, "name": "FENGYUN 1C DEB", "group": "fengyun-1c-debris", "lat": 73.67401371510597, "lon": -172.66826134902993, "alt_km": 761.3776779357777, "timestamp": "2025-12-03T15:48:03.354032+00:00", "meta": {"OBJECT_NAME": "FENGYUN 1C DEB", "OBJECT_ID": "1999-025CDA", "EPOCH": "2025-11-24T23:02:29.889888", "MEAN_MOTION": 14.18081768, "ECCENTRICITY": 0.00876738, "INCLINATION": 99.1762, "RA_OF_ASC_NODE": 324.8504, "ARG_OF_PERICENTER": 132.2014, "MEAN_ANOMALY": 228.6645, "EPHEMERIS_TYPE": 0, "CLASSIFICATION_TYPE": "U", "NORAD_CAT_ID": 31692, "ELEMENT_SET_NO": 999, "REV_AT_EPOCH": 57957, "BSTAR": 0.0029345373, "MEAN_MOTION_DOT": 6.21e-05, "MEAN_MOTION_DDOT": 0}, "tle": {"line1": "1 31692U 99025CDA 25328.96006817  .00006210  00000+0  29345-2 0  9996", "line2": "2 31692  99.1762 324.8504 0087673 132.2014 228.6645 14.18081768579577"}}, "geometry": {"type": "Point", "coordinates": [-172.66826134902993, 73.67401371510597]}}, {"type": "Feature", "properties": {"norad_id": 31695, "name": "FENGYUN 1C DEB", "group": "fengyun-1c-debris", "lat": -51.863329058453985, "lon": -128.87161214056474, "alt_km": 545.271444434592, "timestamp": "2025-12-03T15:48:03.354041+00:00", "meta": {"OBJECT_NAME": "FENGYUN 1C DEB", "OBJECT_ID": "1999-025CDD", "EPOCH": "2025-12-01T23:36:54.026496", "MEAN_MOTION": 14.73228287, "ECCENTRICITY": 0.0175728, "INCLINATION": 98.2661, "RA_OF_ASC_NODE": 60.0934, "ARG_OF_PERICENTER": 262.8601, "MEAN_ANOMALY": 95.2597, "EPHEMERIS_TYPE": 0, "CLASSIFICATION_TYPE": "U", "NORAD_CAT_ID": 31695, "ELEMENT_SET_NO": 999, "REV_AT_EPOCH": 65813, "BSTAR": 0.001759767, "MEAN_MOTION_DOT": 0.000145, "MEAN_MOTION_DDOT": 0}, "tle": {"line1": "1 31695U 99025CDD 25335.98395864  .00014500  00000+0  17598-2 0  9990", "line2": "2 31695  98.2661  60.0934 0175728 262.8601  95.2597 14.73228287658139"}}, "geometry": {"type": "Point", "coordinates": [-128.87161214056474, -51.863329058453985]}}, {"type": "Feature", "properties": {"norad_id": 31714, "name": "FENGYUN 1C DEB", "group": "fengyun-1c-debris", "lat": -50.31582845676781, "lon": 45.54654848837042, "alt_km": 619.1161660239632, "timestamp": "2025-12-03T15:48:03.354050+00:00", "meta": {"OBJECT_NAME": "FENGYUN 1C DEB", "OBJECT_ID": "1999-025CDM", "EPOCH": "2025-12-03T07:15:10.329696", "MEAN_MOTION": 14.86254821, "ECCENTRICITY": 0.00222793, "INCLINATION": 99.0327, "RA_OF_ASC_NODE": 236.1954, "ARG_OF_PERICENTER": 332.509, "MEAN_ANOMALY": 154.2586, "EPHEMERIS_TYPE": 0, "CLASSIFICATION_TYPE": "U", "NORAD_CAT_ID": 31714, "ELEMENT_SET_NO": 999, "REV_AT_EPOCH": 95909, "BSTAR": 0.0084386744, "MEAN_MOTION_DOT": 0.0007526, "MEAN_MOTION_DDOT": 0}, "tle": {"line1": "1 31714U 99025CDM 25337.30220289  .00075260  00000+0  84387-2 0  9998", "line2": "2 31714  99.0327 236.1954 0022279 332.5090 154.2586 14.86254821959096"}}, "geometry": {"type": "Point", "coordinates": [45.54654848837042, -50.31582845676781]}}, {"type": "Feature", "properties": {"norad_id": 31715, "name": "FENGYUN 1C DEB", "group": "fengyun-1c-debris", "lat": -4.925358854405934, "lon": 166.31412474188397, "alt_km": 838.8072179309474, "timestamp": "2025-12-03T15:48:03.354059+00:00", "meta": {"OBJECT_NAME": "FENGYUN 1C DEB", "OBJECT_ID": "1999-025CDN", "EPOCH": "2025-11-29T05:58:31.345824", "MEAN_MOTION": 14.51952144, "ECCENTRICITY": 0.01873161, "INCLINATION": 99.2941, "RA_OF_ASC_NODE": 160.6278, "ARG_OF_PERICENTER": 159.6825, "MEAN_ANOMALY": 201.195, "EPHEMERIS_TYPE": 0, "CLASSIFICATION_TYPE": "U", "NORAD_CAT_ID": 31715, "ELEMENT_SET_NO": 999, "REV_AT_EPOCH": 61521, "BSTAR": 0.0011034266, "MEAN_MOTION_DOT": 5.542e-05, "MEAN_MOTION_DDOT": 0}, "tle": {"line1": "1 31715U 99025CDN 25333.24897391  .00005542  00000+0  11034-2 0  9997", "line2": "2 31715  99.2941 160.6278 0187316 159.6825 201.1950 14.51952144615214"}}, "geometry": {"type": "Point", "coordinates": [166.31412474188397, -4.925358854405934]}}]}